HIMAWARI-8              
1 40267U 14060A   24215.83770455 -.00000287  00000+0  00000+0 0  9999
2 40267   0.0285 177.5561 0000949  22.4665 194.1023  1.00270797 35905
